NORAD_CAT_ID,OBJECT_NAME,OBJECT_TYPE,EPOCH,MEAN_MOTION,ECCENTRICITY,INCLINATION,RA_OF_ASC_NODE,ARG_OF_PERICENTER,MEAN_ANOMALY,BSTAR,MEAN_MOTION_DOT,MEAN_MOTION_DDOT,TLE_LINE0,TLE_LINE1,TLE_LINE2,SEMIMAJOR_AXIS,PERIOD,APOGEE,PERIGEE,DECAYED
53969.0,STARLINK-4468,PAYLOAD,2024-06-14 10:39:58,15.08839937,0.0001326,53.2166,186.8674,85.1355,274.9789,0.00010835,1.437e-05,0.0,0 STARLINK-4468,1 53969U 22125F   24166.44442416  .00001437  00000-0  10835-3 0  9997,2 53969  53.2166 186.8674 0001326  85.1355 274.9789 15.08839937 93726,6917.881,95.438,540.663,538.828,0.0
53969.0,STARLINK-4468,PAYLOAD,2024-06-15 07:19:59,15.08841681,0.0001277,53.216,183.0025,87.3644,272.7494,3.616e-05,2.88e-06,0.0,0 STARLINK-4468,1 53969U 22125F   24167.30554517  .00000288  00000-0  36160-4 0  9992,2 53969  53.2160 183.0025 0001277  87.3644 272.7494 15.08841681 93851,6917.875,95.437,540.624,538.857,0.0
53969.0,STARLINK-4468,PAYLOAD,2024-06-15 18:27:40,15.08844189,0.0001284,53.2162,180.9208,87.1695,272.9444,5.2457e-05,5.47e-06,0.0,0 STARLINK-4468,1 53969U 22125F   24167.76922243  .00000547  00000-0  52457-4 0  9992,2 53969  53.2162 180.9208 0001284  87.1695 272.9444 15.08844189 93925,6917.868,95.437,540.621,538.844,0.0
53969.0,STARLINK-4468,PAYLOAD,2024-06-16 07:10:45,15.08846313,0.0001306,53.2163,178.541,91.566,268.5481,8.1788e-05,1.014e-05,0.0,0 STARLINK-4468,1 53969U 22125F   24168.29913906  .00001014  00000-0  81788-4 0  9996,2 53969  53.2163 178.5410 0001306  91.5660 268.5481 15.08846313 94003,6917.861,95.437,540.63,538.823,0.0
53969.0,STARLINK-4468,PAYLOAD,2024-06-17 07:01:32,15.08843602,0.000128,53.2163,174.0806,90.9752,269.1387,6.9289e-05,8.15e-06,0.0,0 STARLINK-4468,1 53969U 22125F   24169.29274101  .00000815  00000-0  69289-4 0  9994,2 53969  53.2163 174.0806 0001280  90.9752 269.1387 15.08843602 94155,6917.869,95.437,540.62,538.849,0.0
53969.0,STARLINK-4468,PAYLOAD,2024-06-18 00:30:47,15.08839743,0.0001319,53.2165,170.8095,91.7557,268.3586,-6.8405e-07,-2.99e-06,0.0,0 STARLINK-4468,1 53969U 22125F   24170.02138360 -.00000299  00000-0 -68405-6 0  9992,2 53969  53.2165 170.8095 0001319  91.7557 268.3586 15.08839743 94339,6917.881,95.438,540.659,538.834,0.0
53969.0,STARLINK-4468,PAYLOAD,2024-06-18 13:13:52,15.08840479,0.0001291,53.2166,168.4311,90.104,270.01,2.0006e-05,3.1e-07,0.0,0 STARLINK-4468,1 53969U 22125F   24170.55130189  .00000031  00000-0  20006-4 0  9996,2 53969  53.2166 168.4311 0001291  90.1040 270.0100 15.08840479 94344,6917.879,95.438,540.637,538.851,0.0
53969.0,STARLINK-4468,PAYLOAD,2024-06-19 03:32:21,15.0883355,0.0001289,53.217,165.7553,90.7372,269.3768,9.6117e-06,-1.35e-06,0.0,0 STARLINK-4468,1 53969U 22125F   24171.14746752 -.00000135  00000-0  96117-5 0  9994,2 53969  53.2170 165.7553 0001289  90.7372 269.3768 15.08833550 94509,6917.9,95.438,540.657,538.873,0.0
53969.0,STARLINK-4468,PAYLOAD,2024-06-19 14:40:03,15.08829144,0.0001292,53.2171,163.6738,88.9738,271.1402,-3.221e-05,-8e-06,0.0,0 STARLINK-4468,1 53969U 22125F   24171.61115236 -.00000800  00000-0 -32210-4 0  9996,2 53969  53.2171 163.6738 0001292  88.9738 271.1402 15.08829144 94501,6917.914,95.438,540.672,538.885,0.0
53969.0,STARLINK-4468,PAYLOAD,2024-06-19 16:15:26,15.08829716,0.0001313,53.2167,163.3765,88.9224,271.1919,-1.8818e-05,-5.87e-06,0.0,0 STARLINK-4468,1 53969U 22125F   24171.67739205 -.00000587  00000-0 -18818-4 0  9990,2 53969  53.2167 163.3765 0001313  88.9224 271.1919 15.08829716 94516,6917.912,95.438,540.685,538.869,0.0
53969.0,STARLINK-4468,PAYLOAD,2024-06-20 04:58:31,15.08831921,0.0001326,53.2167,160.9975,90.3528,269.7616,1.2104e-05,-9.5e-07,0.0,0 STARLINK-4468,1 53969U 22125F   24172.20731248 -.00000095  00000-0  12104-4 0  9994,2 53969  53.2167 160.9975 0001326  90.3528 269.7616 15.08831921 94664,6917.905,95.438,540.687,538.853,0.0
53969.0,STARLINK-4468,PAYLOAD,2024-06-20 12:55:27,15.08835849,0.0001319,53.2166,159.5107,90.0451,270.0693,3.4128e-05,2.55e-06,0.0,0 STARLINK-4468,1 53969U 22125F   24172.53851093  .00000255  00000-0  34128-4 0  9998,2 53969  53.2166 159.5107 0001319  90.0451 270.0693 15.08835849 94649,6917.893,95.438,540.671,538.846,0.0
53969.0,STARLINK-4468,PAYLOAD,2024-06-20 22:27:46,15.08838846,0.0001322,53.2168,157.7265,89.6655,270.4489,4.7905e-05,4.75e-06,0.0,0 STARLINK-4468,1 53969U 22125F   24172.93594952  .00000475  00000-0  47905-4 0  9991,2 53969  53.2168 157.7265 0001322  89.6655 270.4489 15.08838846 94771,6917.884,95.438,540.663,538.834,0.0
53969.0,STARLINK-4468,PAYLOAD,2024-06-21 08:00:04,15.08842919,0.0001316,53.2168,155.9424,90.2234,269.8909,9.9588e-05,1.298e-05,0.0,0 STARLINK-4468,1 53969U 22125F   24173.33338665  .00001298  00000-0  99588-4 0  9991,2 53969  53.2168 155.9424 0001316  90.2234 269.8909 15.08842919 94766,6917.871,95.437,540.647,538.826,0.0
53969.0,STARLINK-4468,PAYLOAD,2024-06-21 22:18:33,15.08818301,0.0001159,53.2168,153.2661,103.1125,256.9997,0.00034898,5.267e-05,0.0,0 STARLINK-4468,1 53969U 22125F   24173.92955904  .00005267  00000-0  34898-3 0  9999,2 53969  53.2168 153.2661 0001159 103.1125 256.9997 15.08818301 94850,6917.947,95.439,540.614,539.01,0.0
53969.0,STARLINK-4468,PAYLOAD,2024-06-22 04:40:05,15.08838763,0.0001347,53.2168,152.0766,88.0897,272.025,8.8134e-05,1.115e-05,0.0,0 STARLINK-4468,1 53969U 22125F   24174.19451197  .00001115  00000-0  88134-4 0  9995,2 53969  53.2168 152.0766 0001347  88.0897 272.0250 15.08838763 94966,6917.884,95.438,540.681,538.817,0.0
53969.0,STARLINK-4468,PAYLOAD,2024-06-22 07:50:51,15.08840642,0.0001357,53.2168,151.4819,88.467,271.6477,0.00010159,1.329e-05,0.0,0 STARLINK-4468,1 53969U 22125F   24174.32699062  .00001329  00000-0  10159-3 0  9993,2 53969  53.2168 151.4819 0001357  88.4670 271.6477 15.08840642 94912,6917.878,95.438,540.682,538.805,0.0
53969.0,STARLINK-4468,PAYLOAD,2024-06-22 22:09:20,15.08841902,0.0001373,53.2167,148.8053,88.0775,272.0374,7.2236e-05,8.62e-06,0.0,0 STARLINK-4468,1 53969U 22125F   24174.92315068  .00000862  00000-0  72236-4 0  9996,2 53969  53.2167 148.8053 0001373  88.0775 272.0374 15.08841902 95003,6917.875,95.437,540.689,538.79,0.0
53969.0,STARLINK-4468,PAYLOAD,2024-06-23 07:41:38,15.08848133,0.0001517,53.2171,147.0215,86.0528,274.0637,8.2715e-05,1.029e-05,0.0,0 STARLINK-4468,1 53969U 22125F   24175.32058554  .00001029  00000-0  82715-4 0  9994,2 53969  53.2171 147.0215 0001517  86.0528 274.0637 15.08848133 95134,6917.856,95.437,540.77,538.671,0.0
53969.0,STARLINK-4468,PAYLOAD,2024-06-23 22:00:07,15.08839588,0.0001559,53.2169,144.3459,82.7521,277.3648,5.0828e-05,5.21e-06,0.0,0 STARLINK-4468,1 53969U 22125F   24175.91675159  .00000521  00000-0  50828-4 0  9991,2 53969  53.2169 144.3459 0001559  82.7521 277.3648 15.08839588 95157,6917.882,95.438,540.825,538.668,0.0
53969.0,STARLINK-4468,PAYLOAD,2024-06-24 04:21:39,15.08839835,0.0001546,53.217,143.1563,84.2442,275.8726,4.5582e-05,4.38e-06,0.0,0 STARLINK-4468,1 53969U 22125F   24176.18171145  .00000438  00000-0  45582-4 0  9995,2 53969  53.2170 143.1563 0001546  84.2442 275.8726 15.08839835 95264,6917.881,95.438,540.815,538.676,0.0
53969.0,STARLINK-4468,PAYLOAD,2024-06-24 07:32:25,15.08841771,0.0001522,53.2169,142.5612,86.4856,273.631,5.7109e-05,6.21e-06,0.0,0 STARLINK-4468,1 53969U 22125F   24176.31418959  .00000621  00000-0  57109-4 0  9999,2 53969  53.2169 142.5612 0001522  86.4856 273.6310 15.08841771 95219,6917.875,95.437,540.793,538.687,0.0
53969.0,STARLINK-4468,PAYLOAD,2024-06-25 02:37:03,15.08841179,0.0001602,53.217,138.992,95.0222,265.0953,1.8354e-05,4e-08,0.0,0 STARLINK-4468,1 53969U 22125F   24177.10907031  .00000004  00000-0  18354-4 0  9995,2 53969  53.2170 138.9920 0001602  95.0222 265.0953 15.08841179 95337,6917.877,95.437,540.85,538.634,0.0
53969.0,STARLINK-4468,PAYLOAD,2024-06-26 02:27:50,15.08841452,0.0001531,53.2175,134.5312,94.8995,265.2172,5.6806e-05,6.16e-06,0.0,0 STARLINK-4468,1 53969U 22125F   24178.10266906  .00000616  00000-0  56806-4 0  9998,2 53969  53.2175 134.5312 0001531  94.8995 265.2172 15.08841452 95557,6917.876,95.437,540.8,538.682,0.0
53969.0,STARLINK-4468,PAYLOAD,2024-06-26 04:03:13,15.08846624,0.0001472,53.2175,134.2344,92.0512,268.0649,9.8484e-05,1.28e-05,0.0,0 STARLINK-4468,1 53969U 22125F   24178.16890498  .00001280  00000-0  98484-4 0  9999,2 53969  53.2175 134.2344 0001472  92.0512 268.0649 15.08846624 95497,6917.86,95.437,540.743,538.707,0.0
53969.0,STARLINK-4468,PAYLOAD,2024-06-27 02:18:38,15.08834738,0.0001833,53.2187,130.0842,121.6791,238.438,-4.9345e-06,-3.67e-06,0.0,0 STARLINK-4468,1 53969U 22125F   24179.09627727 -.00000367  00000-0 -49345-5 0  9995,2 53969  53.2187 130.0842 0001833 121.6791 238.4380 15.08834738 95706,6917.896,95.438,541.03,538.493,0.0
53969.0,STARLINK-4468,PAYLOAD,2024-06-27 13:26:20,15.08833323,0.0001325,53.2161,127.9928,105.5891,254.5247,8.966e-06,-1.45e-06,0.0,0 STARLINK-4468,1 53969U 22125F   24179.55995984 -.00000145  00000-0  89660-5 0  9996,2 53969  53.2161 127.9928 0001325 105.5891 254.5247 15.08833323 95706,6917.901,95.438,540.682,538.849,0.0
53969.0,STARLINK-4468,PAYLOAD,2024-06-28 03:44:48,15.08839705,0.0001385,53.2177,125.3182,102.5592,257.5555,5.3506e-06,-2.03e-06,0.0,0 STARLINK-4468,1 53969U 22125F   24180.15611898 -.00000203  00000-0  53506-5 0  9998,2 53969  53.2177 125.3182 0001385 102.5592 257.5555 15.08839705 95860,6917.881,95.438,540.704,538.788,0.0
53969.0,STARLINK-4468,PAYLOAD,2024-06-28 13:17:06,15.08848398,0.0001354,53.2179,123.533,92.0188,268.0959,8.98e-05,1.142e-05,0.0,0 STARLINK-4468,1 53969U 22125F   24180.55355096  .00001142  00000-0  89800-4 0  9994,2 53969  53.2179 123.5330 0001354  92.0188 268.0959 15.08848398 95859,6917.855,95.437,540.656,538.783,0.0
53969.0,STARLINK-4468,PAYLOAD,2024-06-29 03:35:33,15.08862975,0.0001193,53.2172,120.8537,88.897,271.2158,0.00031173,4.68e-05,0.0,0 STARLINK-4468,1 53969U 22125F   24181.14969586  .00004680  00000-0  31173-3 0  9994,2 53969  53.2172 120.8537 0001193  88.8970 271.2158 15.08862975 96017,6917.81,95.436,540.5,538.85,0.0
